{"type": "FeatureCollection", "features": [ {"type": "Feature", "properties": {"norad_id": 67010, "name": "STARLINK-36189", "group": "last-30-days", "lat": -0.7202871287055742, "lon": -72.89114373604862, "alt_km": 341.05261341138976, "timestamp": "2025-12-25T07:41:08.451754+00:00", "meta": {"OBJECT_NAME": "STARLINK-36189", "OBJECT_ID": "2025-293H", "EPOCH": "2025-12-24T22:00:03.000096", "MEAN_MOTION": 15.78732659, "ECCENTRICITY": 0.00034156, "INCLINATION": 69.9931, "RA_OF_ASC_NODE": 288.5192, "ARG_OF_PERICENTER": 263.0241, "MEAN_ANOMALY": 324.6136, "EPHEMERIS_TYPE": 0, "CLASSIFICATION_TYPE": "U", "NORAD_CAT_ID": 67010, "ELEMENT_SET_NO": 999, "REV_AT_EPOCH": 212, "BSTAR": -0.010830589, "MEAN_MOTION_DOT": -0.0165594, "MEAN_MOTION_DDOT": 0}, "tle": {"line1": "1 67010U 25293H   25358.91670139 -.01655940  00000+0 -10831-1 0  9999", "line2": "2 67010  69.9931 288.5192 0003415 263.0241 324.6136 15.78732659  2122"}}, "geometry": {"type": "Point", "coordinates": [-72.89114373604862, -0.7202871287055742]}}, {"type": "Feature", "properties": {"norad_id": 67011, "name": "STARLINK-36167", "group": "last-30-days", "lat": -3.088293483260456, "lon": -73.75262242378723, "alt_km": 341.117700447724, "timestamp": "2025-12-25T07:41:08.451764+00:00", "meta": {"OBJECT_NAME": "STARLINK-36167", "OBJECT_ID": "2025-293J", "EPOCH": "2025-12-24T22:00:03.000096", "MEAN_MOTION": 15.7876103, "ECCENTRICITY": 0.00034306, "INCLINATION": 69.9927, "RA_OF_ASC_NODE": 288.5218, "ARG_OF_PERICENTER": 264.7176, "MEAN_ANOMALY": 320.3609, "EPHEMERIS_TYPE": 0, "CLASSIFICATION_TYPE": "U", "NORAD_CAT_ID": 67011, "ELEMENT_SET_NO": 999, "REV_AT_EPOCH": 206, "BSTAR": -0.010844442, "MEAN_MOTION_DOT": -0.01659645, "MEAN_MOTION_DDOT": 0}, "tle": {"line1": "1 67011U 25293J   25358.91670139 -.01659645  00000+0 -10844-1 0  9990", "line2": "2 67011  69.9927 288.5218 0003430 264.7176 320.3609 15.78761030  2065"}}, "geometry": {"type": "Point", "coordinates": [-73.75262242378723, -3.088293483260456]}}, {"type": "Feature", "properties": {"norad_id": 67012, "name": "STARLINK-36175", "group": "last-30-days", "lat": 1.324745568328576, "lon": -72.14867985378496, "alt_km": 340.70745372551846, "timestamp": "2025-12-25T07:41:08.451774+00:00", "meta": {"OBJECT_NAME": "STARLINK-36175", "OBJECT_ID": "2025-293K", "EPOCH": "2025-12-24T22:00:03.000096", "MEAN_MOTION": 15.78727132, "ECCENTRICITY": 0.00034038, "INCLINATION": 69.9927, "RA_OF_ASC_NODE": 288.5164, "ARG_OF_PERICENTER": 267.4889, "MEAN_ANOMALY": 322.3362, "EPHEMERIS_TYPE": 0, "CLASSIFICATION_TYPE": "U", "NORAD_CAT_ID": 67012, "ELEMENT_SET_NO": 999, "REV_AT_EPOCH": 206, "BSTAR": -0.010867571, "MEAN_MOTION_DOT": -0.0166046, "MEAN_MOTION_DDOT": 0}, "tle": {"line1": "1 67012U 25293K   25358.91670139 -.01660460  00000+0 -10868-1 0  9994", "line2": "2 67012  69.9927 288.5164 0003403 267.4889 322.3362 15.78727132  2060"}}, "geometry": {"type": "Point", "coordinates": [-72.14867985378496, 1.324745568328576]}}, {"type": "Feature", "properties": {"norad_id": 67013, "name": "STARLINK-35856", "group": "last-30-days", "lat": 3.6683894440591276, "lon": -71.29639552181109, "alt_km": 340.7321089526804, "timestamp": "2025-12-25T07:41:08.451784+00:00", "meta": {"OBJECT_NAME": "STARLINK-35856", "OBJECT_ID": "2025-293L", "EPOCH": "2025-12-24T22:00:03.000096", "MEAN_MOTION": 15.78698152, "ECCENTRICITY": 0.00036647, "INCLINATION": 69.9926, "RA_OF_ASC_NODE": 288.5128, "ARG_OF_PERICENTER": 263.8207, "MEAN_ANOMALY": 328.5331, "EPHEMERIS_TYPE": 0, "CLASSIFICATION_TYPE": "U", "NORAD_CAT_ID": 67013, "ELEMENT_SET_NO": 999, "REV_AT_EPOCH": 206, "BSTAR": -0.01083196, "MEAN_MOTION_DOT": -0.01654135, "MEAN_MOTION_DDOT": 0}, "tle": {"line1": "1 67013U 25293L   25358.91670139 -.01654135  00000+0 -10832-1 0  9998", "line2": "2 67013  69.9926 288.5128 0003664 263.8207 328.5331 15.78698152  2066"}}, "geometry": {"type": "Point", "coordinates": [-71.29639552181109, 3.6683894440591276]}}, {"type": "Feature", "properties": {"norad_id": 67014, "name": "STARLINK-36207", "group": "last-30-days", "lat": 5.899241697331225, "lon": -70.47941095318951, "alt_km": 340.45572066233854, "timestamp": "2025-12-25T07:41:08.451796+00:00", "meta": {"OBJECT_NAME": "STARLINK-36207", "OBJECT_ID": "2025-293M", "EPOCH": "2025-12-24T22:00:03.000096", "MEAN_MOTION": 15.7868035, "ECCENTRICITY": 0.00036171, "INCLINATION": 69.9929, "RA_OF_ASC_NODE": 288.5107, "ARG_OF_PERICENTER": 266.2428, "MEAN_ANOMALY": 328.5126, "EPHEMERIS_TYPE": 0, "CLASSIFICATION_TYPE": "U", "NORAD_CAT_ID": 67014, "ELEMENT_SET_NO": 999, "REV_AT_EPOCH": 212, "BSTAR": -0.010848349, "MEAN_MOTION_DOT": -0.0165509, "MEAN_MOTION_DDOT": 0}, "tle": {"line1": "1 67014U 25293M   25358.91670139 -.01655090  00000+0 -10848-1 0  9997", "line2": "2 67014  69.9929 288.5107 0003617 266.2428 328.5126 15.78680350  2127"}}, "geometry": {"type": "Point", "coordinates": [-70.47941095318951, 5.899241697331225]}}, {"type": "Feature", "properties": {"norad_id": 67015, "name": "STARLINK-36093", "group": "last-30-days", "lat": 10.305764849100301, "lon": -68.84438228860857, "alt_km": 340.2719576246636, "timestamp": "2025-12-25T07:41:08.451806+00:00", "meta": {"OBJECT_NAME": "STARLINK-36093", "OBJECT_ID": "2025-293N", "EPOCH": "2025-12-24T22:00:03.000096", "MEAN_MOTION": 15.78648262, "ECCENTRICITY": 0.00035812, "INCLINATION": 69.9925, "RA_OF_ASC_NODE": 288.5043, "ARG_OF_PERICENTER": 261.9779, "MEAN_ANOMALY": 337.5231, "EPHEMERIS_TYPE": 0, "CLASSIFICATION_TYPE": "U", "NORAD_CAT_ID": 67015, "ELEMENT_SET_NO": 999, "REV_AT_EPOCH": 206, "BSTAR": -0.010893316, "MEAN_MOTION_DOT": -0.01658892, "MEAN_MOTION_DDOT": 0}, "tle": {"line1": "1 67015U 25293N   25358.91670139 -.01658892  00000+0 -10893-1 0  9991", "line2": "2 67015  69.9925 288.5043 0003581 261.9779 337.5231 15.78648262  2060"}}, "geometry": {"type": "Point", "coordinates": [-68.84438228860857, 10.305764849100301]}}, {"type": "Feature", "properties": {"norad_id": 67016, "name": "STARLINK-36120", "group": "last-30-days", "lat": 8.004108399868933, "lon": -69.70343235304806, "alt_km": 340.47183800837865, "timestamp": "2025-12-25T07:41:08.451818+00:00", "meta": {"OBJECT_NAME": "STARLINK-36120", "OBJECT_ID": "2025-293P", "EPOCH": "2025-12-24T22:00:03.000096", "MEAN_MOTION": 15.78668219, "ECCENTRICITY": 0.00034653, "INCLINATION": 69.9927, "RA_OF_ASC_NODE": 288.5074, "ARG_OF_PERICENTER": 261.0036, "MEAN_ANOMALY": 336.0155, "EPHEMERIS_TYPE": 0, "CLASSIFICATION_TYPE": "U", "NORAD_CAT_ID": 67016, "ELEMENT_SET_NO": 999, "REV_AT_EPOCH": 206, "BSTAR": -0.010870063, "MEAN_MOTION_DOT": -0.01657005, "MEAN_MOTION_DDOT": 0}, "tle": {"line1": "1 67016U 25293P   25358.91670139 -.01657005  00000+0 -10870-1 0  9992", "line2": "2 67016  69.9927 288.5074 0003465 261.0036 336.0155 15.78668219  2068"}}, "geometry": {"type": "Point", "coordinates": [-69.70343235304806, 8.004108399868933]}}, {"type": "Feature", "properties": {"norad_id": 67017, "name": "STARLINK-35498", "group": "last-30-days", "lat": 12.490653829885987, "lon": -68.01639035132047, "alt_km": 340.11665362357235, "timestamp": "2025-12-25T07:41:08.451830+00:00", "meta": {"OBJECT_NAME": "STARLINK-35498", "OBJECT_ID": "2025-293Q", "EPOCH": "2025-12-24T22:00:03.000096", "MEAN_MOTION": 15.78632983, "ECCENTRICITY": 0.0003623, "INCLINATION": 69.992, "RA_OF_ASC_NODE": 288.5013, "ARG_OF_PERICENTER": 261.3032, "MEAN_ANOMALY": 340.5519, "EPHEMERIS_TYPE": 0, "CLASSIFICATION_TYPE": "U", "NORAD_CAT_ID": 67017, "ELEMENT_SET_NO": 999, "REV_AT_EPOCH": 226, "BSTAR": -0.010913949, "MEAN_MOTION_DOT": -0.01660658, "MEAN_MOTION_DDOT": 0}, "tle": {"line1": "1 67017U 25293Q   25358.91670139 -.01660658  00000+0 -10914-1 0  9990", "line2": "2 67017  69.9920 288.5013 0003623 261.3032 340.5519 15.78632983  2265"}}, "geometry": {"type": "Point", "coordinates": [-68.01639035132047, 12.490653829885987]}}, {"type": "Feature", "properties": {"norad_id": 67018, "name": "STARLINK-36106", "group": "last-30-days", "lat": 14.68560685908088, "lon": -67.1695827337122, "alt_km": 339.9352563078155, "timestamp": "2025-12-25T07:41:08.451840+00:00", "meta": {"OBJECT_NAME": "STARLINK-36106", "OBJECT_ID": "2025-293R", "EPOCH": "2025-12-24T22:00:03.000096", "MEAN_MOTION": 15.78610103, "ECCENTRICITY": 0.00036321, "INCLINATION": 69.9921, "RA_OF_ASC_NODE": 288.4981, "ARG_OF_PERICENTER": 261.2684, "MEAN_ANOMALY": 342.9641, "EPHEMERIS_TYPE": 0, "CLASSIFICATION_TYPE": "U", "NORAD_CAT_ID": 67018, "ELEMENT_SET_NO": 999, "REV_AT_EPOCH": 218, "BSTAR": -0.010924639, "MEAN_MOTION_DOT": -0.01660579, "MEAN_MOTION_DDOT": 0}, "tle": {"line1": "1 67018U 25293R   25358.91670139 -.01660579  00000+0 -10925-1 0  9995", "line2": "2 67018  69.9921 288.4981 0003632 261.2684 342.9641 15.78610103  2185"}}, "geometry": {"type": "Point", "coordinates": [-67.1695827337122, 14.68560685908088]}}, {"type": "Feature", "properties": {"norad_id": 67019, "name": "STARLINK-35688", "group": "last-30-days", "lat": 16.77147357913494, "lon": -66.34757816266445, "alt_km": 339.6781121651129, "timestamp": "2025-12-25T07:41:08.451850+00:00", "meta": {"OBJECT_NAME": "STARLINK-35688", "OBJECT_ID": "2025-293S", "EPOCH": "2025-12-24T22:00:03.000096", "MEAN_MOTION": 15.78605041, "ECCENTRICITY": 0.00036304, "INCLINATION": 69.9919, "RA_OF_ASC_NODE": 288.4952, "ARG_OF_PERICENTER": 262.0854, "MEAN_ANOMALY": 344.3865, "EPHEMERIS_TYPE": 0, "CLASSIFICATION_TYPE": "U", "NORAD_CAT_ID": 67019, "ELEMENT_SET_NO": 999, "REV_AT_EPOCH": 226, "BSTAR": -0.010943042, "MEAN_MOTION_DOT": -0.01662667, "MEAN_MOTION_DDOT": 0}, "tle": {"line1": "1 67019U 25293S   25358.91670139 -.01662667  00000+0 -10943-1 0  9996", "line2": "2 67019  69.9919 288.4952 0003630 262.0854 344.3865 15.78605041  2265"}}, "geometry": {"type": "Point", "coordinates": [-66.34757816266445, 16.77147357913494]}}]}